{
  "type": "FeatureCollection",
  "features": [
    {
      "type": "Feature",
      "properties": {
        "norad_id": 41866,
        "name": "GOES 16",
        "group": "weather",
        "lat": 0.05487410047105541,
        "lon": -155.7609351491548,
        "alt_km": 35779.81476376681,
        "timestamp": "2025-12-20T14:38:01.600621+00:00",
        "meta_object_name": "GOES 16",
        "meta_object_id": "2016-071A",
        "meta_epoch": "2025-12-20T06:00:17.028576",
        "meta_mean_motion": 1.00272172,
        "meta_eccentricity": 0.00030246,
        "meta_inclination": 0.0742,
        "meta_ra_of_asc_node": 102.519,
        "meta_arg_of_pericenter": 163.0032,
        "meta_mean_anomaly": 168.9661,
        "meta_ephemeris_type": 0,
        "meta_classification_type": "U",
        "meta_norad_cat_id": 41866,
        "meta_element_set_no": 999,
        "meta_rev_at_epoch": 3330,
        "meta_bstar": 0,
        "meta_mean_motion_dot": -6.7e-07,
        "meta_mean_motion_ddot": 0,
        "tle_line1": "1 41866U 16071A   25354.25019709 -.00000067  00000+0  00000+0 0  9994",
        "tle_line2": "2 41866   0.0742 102.5190 0003024 163.0032 168.9661  1.00272172 33300"
      },
      "geometry": {
        "type": "Point",
        "coordinates": [
          -155.7609351491548,
          0.05487410047105541
        ]
      }
    },
    {
      "type": "Feature",
      "properties": {
        "norad_id": 41882,
        "name": "FENGYUN 4A",
        "group": "weather",
        "lat": -0.2876216466720274,
        "lon": 72.64890735386497,
        "alt_km": 35804.65581011723,
        "timestamp": "2025-12-20T14:38:01.600634+00:00",
        "meta_object_name": "FENGYUN 4A",
        "meta_object_id": "2016-077A",
        "meta_epoch": "2025-12-19T13:51:06.687072",
        "meta_mean_motion": 1.00266581,
        "meta_eccentricity": 0.0004506,
        "meta_inclination": 1.866,
        "meta_ra_of_asc_node": 82.3247,
        "meta_arg_of_pericenter": 142.8816,
        "meta_mean_anomaly": 194.7423,
        "meta_ephemeris_type": 0,
        "meta_classification_type": "U",
        "meta_norad_cat_id": 41882,
        "meta_element_set_no": 999,
        "meta_rev_at_epoch": 3312,
        "meta_bstar": 0,
        "meta_mean_motion_dot": -3.34e-06,
        "meta_mean_motion_ddot": 0,
        "tle_line1": "1 41882U 16077A   25353.57716073 -.00000334  00000+0  00000+0 0  9997",
        "tle_line2": "2 41882   1.8660  82.3247 0004506 142.8816 194.7423  1.00266581 33125"
      },
      "geometry": {
        "type": "Point",
        "coordinates": [
          72.64890735386497,
          -0.2876216466720274
        ]
      }
    },
    {
      "type": "Feature",
      "properties": {
        "norad_id": 41884,
        "name": "CYGFM05",
        "group": "weather",
        "lat": 4.601718607510714,
        "lon": 2.3272276612757015,
        "alt_km": 424.26819099953264,
        "timestamp": "2025-12-20T14:38:01.600646+00:00",
        "meta_object_name": "CYGFM05",
        "meta_object_id": "2016-078A",
        "meta_epoch": "2025-12-20T03:45:50.468832",
        "meta_mean_motion": 15.47895745,
        "meta_eccentricity": 0.00107753,
        "meta_inclination": 34.9605,
        "meta_ra_of_asc_node": 358.6716,
        "meta_arg_of_pericenter": 248.3091,
        "meta_mean_anomaly": 111.6484,
        "meta_ephemeris_type": 0,
        "meta_classification_type": "U",
        "meta_norad_cat_id": 41884,
        "meta_element_set_no": 999,
        "meta_rev_at_epoch": 50091,
        "meta_bstar": 0.00026219074,
        "meta_mean_motion_dot": 0.00014083,
        "meta_mean_motion_ddot": 0,
        "tle_line1": "1 41884U 16078A   25354.15683413  .00014083  00000+0  26219-3 0  9995",
        "tle_line2": "2 41884  34.9605 358.6716 0010775 248.3091 111.6484 15.47895745500912"
      },
      "geometry": {
        "type": "Point",
        "coordinates": [
          2.3272276612757015,
          4.601718607510714
        ]
      }
    },
    {
      "type": "Feature",
      "properties": {
        "norad_id": 41885,
        "name": "CYGFM04",
        "group": "weather",
        "lat": -18.946507803492672,
        "lon": -59.19825535441827,
        "alt_km": 411.3125004412368,
        "timestamp": "2025-12-20T14:38:01.600657+00:00",
        "meta_object_name": "CYGFM04",
        "meta_object_id": "2016-078B",
        "meta_epoch": "2025-12-20T05:30:40.973760",
        "meta_mean_motion": 15.50659809,
        "meta_eccentricity": 0.0009717,
        "meta_inclination": 34.9357,
        "meta_ra_of_asc_node": 332.7546,
        "meta_arg_of_pericenter": 273.9523,
        "meta_mean_anomaly": 86.0089,
        "meta_ephemeris_type": 0,
        "meta_classification_type": "U",
        "meta_norad_cat_id": 41885,
        "meta_element_set_no": 999,
        "meta_rev_at_epoch": 50110,
        "meta_bstar": 0.0002933828,
        "meta_mean_motion_dot": 0.00017387,
        "meta_mean_motion_ddot": 0,
        "tle_line1": "1 41885U 16078B   25354.22964090  .00017387  00000+0  29338-3 0  9992",
        "tle_line2": "2 41885  34.9357 332.7546 0009717 273.9523  86.0089 15.50659809501100"
      },
      "geometry": {
        "type": "Point",
        "coordinates": [
          -59.19825535441827,
          -18.946507803492672
        ]
      }
    },
    {
      "type": "Feature",
      "properties": {
        "norad_id": 41886,
        "name": "CYGFM02",
        "group": "weather",
        "lat": 10.227059201161543,
        "lon": -16.543003453633172,
        "alt_km": 409.45646499148734,
        "timestamp": "2025-12-20T14:38:01.600668+00:00",
        "meta_object_name": "CYGFM02",
        "meta_object_id": "2016-078C",
        "meta_epoch": "2025-12-20T05:17:38.622624",
        "meta_mean_motion": 15.52060995,
        "meta_eccentricity": 0.00114016,
        "meta_inclination": 34.9446,
        "meta_ra_of_asc_node": 331.0427,
        "meta_arg_of_pericenter": 274.4737,
        "meta_mean_anomaly": 85.4683,
        "meta_ephemeris_type": 0,
        "meta_classification_type": "U",
        "meta_norad_cat_id": 41886,
        "meta_element_set_no": 999,
        "meta_rev_at_epoch": 50123,
        "meta_bstar": 0.00030057562,
        "meta_mean_motion_dot": 0.00018752,
        "meta_mean_motion_ddot": 0,
        "tle_line1": "1 41886U 16078C   25354.22058591  .00018752  00000+0  30058-3 0  9991",
        "tle_line2": "2 41886  34.9446 331.0427 0011401 274.4737  85.4683 15.52060995501237"
      },
      "geometry": {
        "type": "Point",
        "coordinates": [
          -16.543003453633172,
          10.227059201161543
        ]
      }
    },
    {
      "type": "Feature",
      "properties": {
        "norad_id": 41887,
        "name": "CYGFM01",
        "group": "weather",
        "lat": 32.26852084955817,
        "lon": 62.7319071171661,
        "alt_km": 422.1847537660169,
        "timestamp": "2025-12-20T14:38:01.600678+00:00",
        "meta_object_name": "CYGFM01",
        "meta_object_id": "2016-078D",
        "meta_epoch": "2025-12-20T01:57:33.640704",
        "meta_mean_motion": 15.4848052,
        "meta_eccentricity": 0.00104469,
        "meta_inclination": 34.9436,
        "meta_ra_of_asc_node": 1.4605,
        "meta_arg_of_pericenter": 240.4041,
        "meta_mean_anomaly": 119.564,
        "meta_ephemeris_type": 0,
        "meta_classification_type": "U",
        "meta_norad_cat_id": 41887,
        "meta_element_set_no": 999,
        "meta_rev_at_epoch": 50084,
        "meta_bstar": 0.00026886851,
        "meta_mean_motion_dot": 0.00014743,
        "meta_mean_motion_ddot": 0,
        "tle_line1": "1 41887U 16078D   25354.08163936  .00014743  00000+0  26887-3 0  9997",
        "tle_line2": "2 41887  34.9436   1.4605 0010446 240.4041 119.5640 15.48480520500845"
      },
      "geometry": {
        "type": "Point",
        "coordinates": [
          62.7319071171661,
          32.26852084955817
        ]
      }
    },
    {
      "type": "Feature",
      "properties": {
        "norad_id": 41888,
        "name": "CYGFM08",
        "group": "weather",
        "lat": 15.71432661727964,
        "lon": 137.14535364651996,
        "alt_km": 417.73612376175424,
        "timestamp": "2025-12-20T14:38:01.600689+00:00",
        "meta_object_name": "CYGFM08",
        "meta_object_id": "2016-078E",
        "meta_epoch": "2025-12-20T04:42:18.390816",
        "meta_mean_motion": 15.49709549,
        "meta_eccentricity": 0.00119739,
        "meta_inclination": 34.9468,
        "meta_ra_of_asc_node": 343.6163,
        "meta_arg_of_pericenter": 263.9423,
        "meta_mean_anomaly": 95.9934,
        "meta_ephemeris_type": 0,
        "meta_classification_type": "U",
        "meta_norad_cat_id": 41888,
        "meta_element_set_no": 999,
        "meta_rev_at_epoch": 50109,
        "meta_bstar": 0.00028662167,
        "meta_mean_motion_dot": 0.00016433,
        "meta_mean_motion_ddot": 0,
        "tle_line1": "1 41888U 16078E   25354.19604619  .00016433  00000+0  28662-3 0  9999",
        "tle_line2": "2 41888  34.9468 343.6163 0011973 263.9423  95.9934 15.49709549501098"
      },
      "geometry": {
        "type": "Point",
        "coordinates": [
          137.14535364651996,
          15.71432661727964
        ]
      }
    }
  ]
}